NORAD_CAT_ID,OBJECT_NAME,OBJECT_TYPE,EPOCH,MEAN_MOTION,ECCENTRICITY,INCLINATION,RA_OF_ASC_NODE,ARG_OF_PERICENTER,MEAN_ANOMALY,BSTAR,MEAN_MOTION_DOT,MEAN_MOTION_DDOT,TLE_LINE0,TLE_LINE1,TLE_LINE2,SEMIMAJOR_AXIS,PERIOD,APOGEE,PERIGEE,DECAYED
52372.0,STARLINK-3796,PAYLOAD,2022-05-15 14:00:01,15.73152672,0.0001114,53.2137,358.5482,110.1695,253.5091,0.00023449,0.00032349,0.0,0 STARLINK-3796,1 52372U 22045AT  22135.58335648  .00032349  00000-0  23449-3 0  9993,2 52372  53.2137 358.5482 0001114 110.1695 253.5091 15.73152672  1305,6728.03,91.536,350.645,349.146,0.0
52372.0,STARLINK-3796,PAYLOAD,2022-05-15 22:00:00,15.73179879,0.0001005,53.2137,356.9008,95.578,356.9202,-0.00034775,-0.00049096,0.0,0 STARLINK-3796,1 52372U 22045AT  22135.91667824 -.00049096  00000-0 -34775-3 0  9997,2 52372  53.2137 356.9008 0001005  95.5780 356.9202 15.73179879  5068,6727.953,91.534,350.494,349.141,0.0
52372.0,STARLINK-3796,PAYLOAD,2022-05-16 06:00:02,15.73226547,0.0001173,53.2144,355.2497,96.963,84.5679,-0.00049155,-0.00069118,0.0,0 STARLINK-3796,1 52372U 22045AT  22136.25002315 -.00069118  00000-0 -49155-3 0  9998,2 52372  53.2144 355.2497 0001173  96.9630  84.5679 15.73226547  5118,6727.819,91.532,350.474,348.895,0.0
52372.0,STARLINK-3796,PAYLOAD,2022-05-16 14:00:01,15.73170954,0.0001269,53.214,353.5992,103.5804,166.8065,0.00012107,0.00016384,0.0,0 STARLINK-3796,1 52372U 22045AT  22136.58334491  .00016384  00000-0  12107-3 0  9999,2 52372  53.2140 353.5992 0001269 103.5804 166.8065 15.73170954  1309,6727.978,91.535,350.69699999999995,348.98900000000015,0.0
52372.0,STARLINK-3796,PAYLOAD,2022-05-16 20:00:01,15.73202755,0.0001152,53.2136,352.3637,93.7381,153.3603,-0.00012511,-0.00018142,0.0,0 STARLINK-3796,1 52372U 22045AT  22136.83334491 -.00018142  00000-0 -12511-3 0  9992,2 52372  53.2136 352.3637 0001152  93.7381 153.3603 15.73202755  5205,6727.887,91.533,350.527,348.977,0.0
52372.0,STARLINK-3796,PAYLOAD,2022-05-16 22:00:00,15.73169697,0.0001138,53.2137,351.9516,92.393,266.9462,0.00039117,0.00054564,0.0,0 STARLINK-3796,1 52372U 22045AT  22136.91667824  .00054564  00000-0  39117-3 0  9997,2 52372  53.2137 351.9516 0001138  92.3930 266.9462 15.73169697  1304,6727.982,91.535,350.612,349.081,0.0
52372.0,STARLINK-3796,PAYLOAD,2022-05-17 14:00:01,15.73198025,0.0001344,53.2134,348.6502,104.5499,72.6824,-0.00022263,-0.00031744,0.0,0 STARLINK-3796,1 52372U 22045AT  22137.58335648 -.00031744  00000-0 -22263-3 0  9998,2 52372  53.2134 348.6502 0001344 104.5499  72.6824 15.73198025  1305,6727.901,91.533,350.67,348.862,0.0
52372.0,STARLINK-3796,PAYLOAD,2022-05-17 20:00:01,15.73204094,0.0001218,53.2132,347.4146,95.5992,58.2805,-0.0005236,-0.00073477,0.0,0 STARLINK-3796,1 52372U 22045AT  22137.83334491 -.00073477  00000-0 -52360-3 0  9991,2 52372  53.2132 347.4146 0001218  95.5992  58.2805 15.73204094  5364,6727.884,91.533,350.5680000000001,348.92900000000014,0.0
52372.0,STARLINK-3796,PAYLOAD,2022-05-17 22:00:01,15.73177502,0.0001216,53.2134,347.0027,92.6343,173.5433,-0.00020481,-0.00029236,0.0,0 STARLINK-3796,1 52372U 22045AT  22137.91668981 -.00029236  00000-0 -20481-3 0  9997,2 52372  53.2134 347.0027 0001216  92.6343 173.5433 15.73177502  1307,6727.959,91.534,350.642,349.006,0.0
52372.0,STARLINK-3796,PAYLOAD,2022-05-18 06:00:00,15.73190484,9.78e-05,53.2135,345.3518,96.784,258.2391,0.00030732,0.00042712,0.0,0 STARLINK-3796,1 52372U 22045AT  22138.25001157  .00042712  00000-0  30732-3 0  9993,2 52372  53.2135 345.3518 0000978  96.7840 258.2391 15.73190484  5420,6727.922,91.534,350.445,349.129,0.0
52372.0,STARLINK-3796,PAYLOAD,2022-05-18 14:00:01,15.732541,0.0001135,53.2139,343.7011,101.7133,342.24,-0.00035679,-0.00050508,0.0,0 STARLINK-3796,1 52372U 22045AT  22138.58334491 -.00050508  00000-0 -35679-3 0  9998,2 52372  53.2139 343.7011 0001135 101.7133 342.2400 15.73254100  1306,6727.741,91.53,350.37,348.842,0.0
52372.0,STARLINK-3796,PAYLOAD,2022-05-18 20:00:01,15.73230986,0.0001115,53.2136,342.4655,89.741,330.9392,-0.00070708,-0.00098825,0.0,0 STARLINK-3796,1 52372U 22045AT  22138.83334491 -.00098825  00000-0 -70708-3 0  9992,2 52372  53.2136 342.4655 0001115  89.7410 330.9392 15.73230986  5522,6727.807,91.531,350.422,348.922,0.0
52372.0,STARLINK-3796,PAYLOAD,2022-05-18 22:00:00,15.73199398,0.0001127,53.2137,342.0534,86.3384,86.5843,-0.00043065,-0.00060622,0.0,0 STARLINK-3796,1 52372U 22045AT  22138.91667824 -.00060622  00000-0 -43065-3 0  9990,2 52372  53.2137 342.0534 0001127  86.3384  86.5843 15.73199398  1309,6727.897,91.533,350.52,349.004,0.0
52372.0,STARLINK-3796,PAYLOAD,2022-05-19 06:00:00,15.73158716,0.0001129,53.2131,340.4024,93.8933,167.9369,0.00021132,0.00029088,0.0,0 STARLINK-3796,1 52372U 22045AT  22139.25001157  .00029088  00000-0  21132-3 0  9999,2 52372  53.2131 340.4024 0001129  93.8933 167.9369 15.73158716  5584,6728.013000000001,91.536,350.63699999999994,349.11800000000005,0.0
52372.0,STARLINK-3796,PAYLOAD,2022-05-19 14:00:01,15.73203978,0.0001240999999999,53.2135,338.7523,101.5478,249.2261,-0.00025208,-0.00035853,0.0,0 STARLINK-3796,1 52372U 22045AT  22139.58335648 -.00035853  00000-0 -25208-3 0  9997,2 52372  53.2135 338.7523 0001241 101.5478 249.2261 15.73203978  1300,6727.884,91.533,350.584,348.914,0.0
52372.0,STARLINK-3796,PAYLOAD,2022-05-19 22:00:00,15.73193951,0.0001189,53.2136,337.1047,88.6669,350.9932,0.00048369,0.00067794,0.0,0 STARLINK-3796,1 52372U 22045AT  22139.91667824  .00067794  00000-0  48369-3 0  9998,2 52372  53.2136 337.1047 0001189  88.6669 350.9932 15.73193951  1307,6727.9119999999975,91.534,350.577,348.977,0.0
52372.0,STARLINK-3796,PAYLOAD,2022-05-20 14:00:01,15.73239948,0.0001296,53.2141,333.8033,95.3273,162.2308,-0.000772,-0.00107772,0.0,0 STARLINK-3796,1 52372U 22045AT  22140.58334491 -.00107772  00000-0 -77200-3 0  9993,2 52372  53.2141 333.8033 0001296  95.3273 162.2308 15.73239948  5791,6727.781,91.531,350.51800000000014,348.774,0.0
52372.0,STARLINK-3796,PAYLOAD,2022-05-20 22:00:00,15.73139914,0.0001421,53.2139,332.1557,83.0128,263.4981,0.0007825,0.00110367,0.0,0 STARLINK-3796,1 52372U 22045AT  22140.91667824  .00110367  00000-0  78250-3 0  9997,2 52372  53.2139 332.1557 0001421  83.0128 263.4981 15.73139914  5843,6728.066,91.537,350.88800000000015,348.975,0.0
52372.0,STARLINK-3796,PAYLOAD,2022-05-21 06:00:00,15.73208683,9.55e-05,53.2139,330.5047,90.4431,345.0235,2.0317e-05,2.234e-05,0.0,0 STARLINK-3796,1 52372U 22045AT  22141.25001157  .00002234  00000-0  20317-4 0  9991,2 52372  53.2139 330.5047 0000955  90.4431 345.0235 15.73208683  1305,6727.87,91.533,350.37800000000016,349.093,0.0
52372.0,STARLINK-3796,PAYLOAD,2022-05-21 14:00:01,15.73247085,0.0001116,53.2137,328.8547,94.3061,70.1471,-0.00050955,-0.00071667,0.0,0 STARLINK-3796,1 52372U 22045AT  22141.58335648 -.00071667  00000-0 -50955-3 0  9990,2 52372  53.2137 328.8547 0001116  94.3061  70.1471 15.73247085  5952,6727.761,91.53,350.37699999999984,348.875,0.0
52372.0,STARLINK-3796,PAYLOAD,2022-05-21 22:00:00,15.73141032,0.0001056,53.2137,327.2072,75.954,177.3971,0.00069863,0.00098333,0.0,0 STARLINK-3796,1 52372U 22045AT  22141.91667824  .00098333  00000-0  69863-3 0  9996,2 52372  53.2137 327.2072 0001056  75.9540 177.3971 15.73141032  1303,6728.063,91.537,350.639,349.218,0.0
52372.0,STARLINK-3796,PAYLOAD,2022-05-22 06:00:00,15.7322181,9.73e-05,53.2138,325.5558,83.3377,258.9007,0.00018725,0.00025764,0.0,0 STARLINK-3796,1 52372U 22045AT  22142.25001157  .00025764  00000-0  18725-3 0  9994,2 52372  53.2138 325.5558 0000973  83.3377 258.9007 15.73221810  6058,6727.833000000001,91.532,350.353,349.043,0.0
52372.0,STARLINK-3796,PAYLOAD,2022-05-22 14:00:01,15.73244408,0.0001296,53.214,323.9061,84.9363,346.2355,-0.0009473,-0.00131756,0.0,0 STARLINK-3796,1 52372U 22045AT  22142.58334491 -.00131756  00000-0 -94730-3 0  9991,2 52372  53.2140 323.9061 0001296  84.9363 346.2355 15.73244408  6115,6727.769,91.531,350.505,348.76199999999994,0.0
52372.0,STARLINK-3796,PAYLOAD,2022-05-22 22:00:01,15.73156994,0.0001431999999999,53.2137,322.2582,74.4477,85.75399999999998,0.00059719,0.00083878,0.0,0 STARLINK-3796,1 52372U 22045AT  22142.91668981  .00083878  00000-0  59719-3 0  9999,2 52372  53.2137 322.2582 0001432  74.4477  85.7540 15.73156994  6161,6728.018,91.536,350.846,348.9190000000001,0.0
52372.0,STARLINK-3796,PAYLOAD,2022-05-23 04:00:00,15.73210886,0.0001252999999999,53.2132,321.0198,77.1161,59.6917,-0.00028217,-0.0004005,0.0,0 STARLINK-3796,1 52372U 22045AT  22143.16667824 -.00040050  00000-0 -28217-3 0  9998,2 52372  53.2132 321.0198 0001253  77.1161  59.6917 15.73210886  6201,6727.864000000001,91.533,350.57199999999995,348.886,0.0
52372.0,STARLINK-3796,PAYLOAD,2022-05-23 14:00:01,15.73233636,0.0001188,53.2134,318.9576,81.9803,255.945,-0.00067005,-0.00093749,0.0,0 STARLINK-3796,1 52372U 22045AT  22143.58334491 -.00093749  00000-0 -67005-3 0  9996,2 52372  53.2134 318.9576 0001188  81.9803 255.9450 15.73233636  1308,6727.799,91.531,350.464,348.865,0.0
52372.0,STARLINK-3796,PAYLOAD,2022-05-23 22:00:01,15.73132828,0.0001152,53.2132,317.3098,69.1335,357.8234,0.00057151,0.00080124,0.0,0 STARLINK-3796,1 52372U 22045AT  22143.91668981  .00080124  00000-0  57151-3 0  9999,2 52372  53.2132 317.3098 0001152  69.1335 357.8234 15.73132828  6327,6728.087,91.537,350.727,349.177,0.0
52372.0,STARLINK-3796,PAYLOAD,2022-05-24 04:00:00,15.73250224,9.29e-05,53.2132,316.0709,67.9186,335.7041,-0.0004874,-0.00068611,0.0,0 STARLINK-3796,1 52372U 22045AT  22144.16667824 -.00068611  00000-0 -48740-3 0  9995,2 52372  53.2132 316.0709 0000929  67.9186 335.7041 15.73250224  6369,6727.752,91.53,350.242,348.992,0.0
52372.0,STARLINK-3796,PAYLOAD,2022-05-24 14:00:01,15.73221093,0.0001245,53.2136,314.0086,73.3917,171.4023,-0.00039784,-0.00056133,0.0,0 STARLINK-3796,1 52372U 22045AT  22144.58334491 -.00056133  00000-0 -39784-3 0  9996,2 52372  53.2136 314.0086 0001245  73.3917 171.4023 15.73221093  1300,6727.835,91.532,350.538,348.862,0.0
